[{"OBJECT_NAME":"STARS-AO","OBJECT_ID":"2018-084J","EPOCH":"2026-03-09T20:00:51.608160","MEAN_MOTION":15.15819992,"ECCENTRICITY":0.00030362,"INCLINATION":98.062,"RA_OF_ASC_NODE":276.6974,"ARG_OF_PERICENTER":126.1891,"MEAN_ANOMALY":233.9621,"EPHEMERIS_TYPE":0,"CLASSIFICATION_TYPE":"U","NORAD_CAT_ID":43679,"ELEMENT_SET_NO":999,"REV_AT_EPOCH":40241,"BSTAR":0.00043170347,"MEAN_MOTION_DOT":8.179e-5,"MEAN_MOTION_DDOT":0},{"OBJECT_NAME":"STARLINK-30217","OBJECT_ID":"2023-105W","EPOCH":"2026-03-09T22:00:01.999584","MEAN_MOTION":15.14301134,"ECCENTRICITY":0.00016012,"INCLINATION":42.9998,"RA_OF_ASC_NODE":246.7296,"ARG_OF_PERICENTER":288.118,"MEAN_ANOMALY":170.7222,"EPHEMERIS_TYPE":0,"CLASSIFICATION_TYPE":"U","NORAD_CAT_ID":57450,"ELEMENT_SET_NO":999,"REV_AT_EPOCH":578,"BSTAR":0.0050784754,"MEAN_MOTION_DOT":0.00095699,"MEAN_MOTION_DDOT":0}]
